[{"OBJECT_NAME":"STARLINK-36507","OBJECT_ID":"2026-005F","EPOCH":"2026-03-09T11:49:36.683616","MEAN_MOTION":15.27593745,"ECCENTRICITY":0.00021331,"INCLINATION":43.0013,"RA_OF_ASC_NODE":239.3292,"ARG_OF_PERICENTER":265.9144,"MEAN_ANOMALY":94.1464,"EPHEMERIS_TYPE":0,"CLASSIFICATION_TYPE":"U","NORAD_CAT_ID":67409,"ELEMENT_SET_NO":999,"REV_AT_EPOCH":866,"BSTAR":0.00093302103,"MEAN_MOTION_DOT":0.00025513,"MEAN_MOTION_DDOT":0},{"OBJECT_NAME":"KUIPER-00266","OBJECT_ID":"2026-030AB","EPOCH":"2026-03-08T21:54:37.698048","MEAN_MOTION":15.30874235,"ECCENTRICITY":0.0022313,"INCLINATION":51.8807,"RA_OF_ASC_NODE":223.5904,"ARG_OF_PERICENTER":72.5291,"MEAN_ANOMALY":287.8129,"EPHEMERIS_TYPE":0,"CLASSIFICATION_TYPE":"U","NORAD_CAT_ID":67789,"ELEMENT_SET_NO":999,"REV_AT_EPOCH":496,"BSTAR":0.00098219753,"MEAN_MOTION_DOT":0.00029701,"MEAN_MOTION_DDOT":0}]
